[
    {
        "Altitude(m)": 717759.9757391585,
        "Argument of Periapsis(deg)": 0.0022780242373254137,
        "Eccentricity": 0.0,
        "Inclination(deg)": 45.0,
        "Latitude(deg)": -44.85517388447089,
        "Longitude(deg)": 131.6087437762671,
        "Mean Anomaly(deg)": -95.87515667050386,
        "RAAN(deg)": 329.9978496117084,
        "Satellite Name": "Constellation 1 1468",
        "Satellite Number": 1468,
        "Semi-Major Axis(m)": 7083131.272910544,
        "Time(s)": 38
    },
    {
        "Altitude(m)": 717762.4930940518,
        "Argument of Periapsis(deg)": 0.002337972243570819,
        "Eccentricity": 0.0,
        "Inclination(deg)": 45.0,
        "Latitude(deg)": -44.86130417879563,
        "Longitude(deg)": 131.68939744366523,
        "Mean Anomaly(deg)": -95.81445553025392,
        "RAAN(deg)": 329.9977930225428,
        "Satellite Name": "Constellation 1 1468",
        "Satellite Number": 1468,
        "Semi-Major Axis(m)": 7083131.272910544,
        "Time(s)": 39
    },
    {
        "Altitude(m)": 717764.984486221,
        "Argument of Periapsis(deg)": 0.0023979202498162246,
        "Eccentricity": 0.0,
        "Inclination(deg)": 45.0,
        "Latitude(deg)": -44.867371567653876,
        "Longitude(deg)": 131.7700689711893,
        "Mean Anomaly(deg)": -95.75375439000402,
        "RAAN(deg)": 329.99773643337716,
        "Satellite Name": "Constellation 1 1468",
        "Satellite Number": 1468,
        "Semi-Major Axis(m)": 7083131.272910544,
        "Time(s)": 40
    },
    {
        "Altitude(m)": 717767.4499064471,
        "Argument of Periapsis(deg)": 0.00245786825606163,
        "Eccentricity": 0.0,
        "Inclination(deg)": 45.0,
        "Latitude(deg)": -44.873376024834016,
        "Longitude(deg)": 131.85075818206045,
        "Mean Anomaly(deg)": -95.69305324975409,
        "RAAN(deg)": 329.99767984421163,
        "Satellite Name": "Constellation 1 1468",
        "Satellite Number": 1468,
        "Semi-Major Axis(m)": 7083131.272910544,
        "Time(s)": 41
    },
    {
        "Altitude(m)": 717769.8893456148,
        "Argument of Periapsis(deg)": 0.002517816262307036,
        "Eccentricity": 0.0,
        "Inclination(deg)": 45.0,
        "Latitude(deg)": -44.87931752438266,
        "Longitude(deg)": 131.93146489919397,
        "Mean Anomaly(deg)": -95.6323521095043,
        "RAAN(deg)": 329.99762325504605,
        "Satellite Name": "Constellation 1 1468",
        "Satellite Number": 1468,
        "Semi-Major Axis(m)": 7083131.272910544,
        "Time(s)": 42
    },
    {
        "Altitude(m)": 717772.3027946934,
        "Argument of Periapsis(deg)": 0.0025777642685524413,
        "Eccentricity": 0.0,
        "Inclination(deg)": 45.0,
        "Latitude(deg)": -44.88519604060531,
        "Longitude(deg)": 132.01218894520406,
        "Mean Anomaly(deg)": -95.57165096925436,
        "RAAN(deg)": 329.9975666658805,
        "Satellite Name": "Constellation 1 1468",
        "Satellite Number": 1468,
        "Semi-Major Axis(m)": 7083131.272910544,
        "Time(s)": 43
    },
    {
        "Altitude(m)": 717774.6902447535,
        "Argument of Periapsis(deg)": 0.002637712274797847,
        "Eccentricity": 0.0,
        "Inclination(deg)": 45.0,
        "Latitude(deg)": -44.89101154806652,
        "Longitude(deg)": 132.09292997430757,
        "Mean Anomaly(deg)": -95.51094982900443,
        "RAAN(deg)": 329.99751007671495,
        "Satellite Name": "Constellation 1 1468",
        "Satellite Number": 1468,
        "Semi-Major Axis(m)": 7083131.272910544,
        "Time(s)": 44
    },
    {
        "Altitude(m)": 717777.0516869652,
        "Argument of Periapsis(deg)": 0.0026976602810432526,
        "Eccentricity": 0.0,
        "Inclination(deg)": 45.0,
        "Latitude(deg)": -44.896764021591274,
        "Longitude(deg)": 132.17368814471558,
        "Mean Anomaly(deg)": -95.45024868875448,
        "RAAN(deg)": 329.99745348754936,
        "Satellite Name": "Constellation 1 1468",
        "Satellite Number": 1468,
        "Semi-Major Axis(m)": 7083131.272910544,
        "Time(s)": 45
    },
    {
        "Altitude(m)": 717779.3871125838,
        "Argument of Periapsis(deg)": 0.0027576082872886585,
        "Eccentricity": 0.0,
        "Inclination(deg)": 45.0,
        "Latitude(deg)": -44.90245343626437,
        "Longitude(deg)": 132.25446311005487,
        "Mean Anomaly(deg)": -95.38954754850465,
        "RAAN(deg)": 329.9973968983838,
        "Satellite Name": "Constellation 1 1468",
        "Satellite Number": 1468,
        "Semi-Major Axis(m)": 7083131.272910544,
        "Time(s)": 46
    },
    {
        "Altitude(m)": 717781.6965129733,
        "Argument of Periapsis(deg)": 0.0028175562935340644,
        "Eccentricity": 0.0,
        "Inclination(deg)": 45.0,
        "Latitude(deg)": -44.908079767431666,
        "Longitude(deg)": 132.33525469175865,
        "Mean Anomaly(deg)": -95.32884640825472,
        "RAAN(deg)": 329.9973403092182,
        "Satellite Name": "Constellation 1 1468",
        "Satellite Number": 1468,
        "Semi-Major Axis(m)": 7083131.272910544,
        "Time(s)": 47
    },
    {
        "Altitude(m)": 717783.9798795842,
        "Argument of Periapsis(deg)": 0.00287750429977947,
        "Eccentricity": 0.0,
        "Inclination(deg)": 45.0,
        "Latitude(deg)": -44.91364299070039,
        "Longitude(deg)": 132.41606271097157,
        "Mean Anomaly(deg)": -95.26814526800479,
        "RAAN(deg)": 329.9972837200527,
        "Satellite Name": "Constellation 1 1468",
        "Satellite Number": 1468,
        "Semi-Major Axis(m)": 7083131.272910544,
        "Time(s)": 48
    },
    {
        "Altitude(m)": 717786.2372039703,
        "Argument of Periapsis(deg)": 0.002937452306024875,
        "Eccentricity": 0.0,
        "Inclination(deg)": 45.0,
        "Latitude(deg)": -44.91914308193961,
        "Longitude(deg)": 132.49688698855314,
        "Mean Anomaly(deg)": -95.207444127755,
        "RAAN(deg)": 329.9972271308871,
        "Satellite Name": "Constellation 1 1468",
        "Satellite Number": 1468,
        "Semi-Major Axis(m)": 7083131.272910544,
        "Time(s)": 49
    },
    {
        "Altitude(m)": 717788.4684777723,
        "Argument of Periapsis(deg)": 0.0029974003122702807,
        "Eccentricity": 0.0,
        "Inclination(deg)": 45.0,
        "Latitude(deg)": -44.924580017280825,
        "Longitude(deg)": 132.5777273450813,
        "Mean Anomaly(deg)": -95.14674298750506,
        "RAAN(deg)": 329.9971705417215,
        "Satellite Name": "Constellation 1 1468",
        "Satellite Number": 1468,
        "Semi-Major Axis(m)": 7083131.272910544,
        "Time(s)": 50
    },
    {
        "Altitude(m)": 717790.6736927377,
        "Argument of Periapsis(deg)": 0.0030573483185156866,
        "Eccentricity": 0.0,
        "Inclination(deg)": 45.0,
        "Latitude(deg)": -44.929953773118356,
        "Longitude(deg)": 132.6585836008542,
        "Mean Anomaly(deg)": -95.08604184725506,
        "RAAN(deg)": 329.99711395255594,
        "Satellite Name": "Constellation 1 1468",
        "Satellite Number": 1468,
        "Semi-Major Axis(m)": 7083131.272910544,
        "Time(s)": 51
    },
    {
        "Altitude(m)": 717792.852840699,
        "Argument of Periapsis(deg)": 0.003117296324761092,
        "Eccentricity": 0.0,
        "Inclination(deg)": 45.0,
        "Latitude(deg)": -44.93526432610963,
        "Longitude(deg)": 132.73945540779656,
        "Mean Anomaly(deg)": -95.02534070700523,
        "RAAN(deg)": 329.99705736339035,
        "Satellite Name": "Constellation 1 1468",
        "Satellite Number": 1468,
        "Semi-Major Axis(m)": 7083131.272910544,
        "Time(s)": 52
    },
    {
        "Altitude(m)": 717795.0059135939,
        "Argument of Periapsis(deg)": 0.0031772443310064975,
        "Eccentricity": 0.0,
        "Inclination(deg)": 45.0,
        "Latitude(deg)": -44.940511653176564,
        "Longitude(deg)": 132.82034292185057,
        "Mean Anomaly(deg)": -94.96463956675534,
        "RAAN(deg)": 329.99700077422483,
        "Satellite Name": "Constellation 1 1468",
        "Satellite Number": 1468,
        "Semi-Major Axis(m)": 7083131.272910544,
        "Time(s)": 53
    },
    {
        "Altitude(m)": 717797.132903455,
        "Argument of Periapsis(deg)": 0.0032371923372519038,
        "Eccentricity": 0.0,
        "Inclination(deg)": 45.0,
        "Latitude(deg)": -44.94569573150469,
        "Longitude(deg)": 132.90124579439754,
        "Mean Anomaly(deg)": -94.9039384265054,
        "RAAN(deg)": 329.9969441850592,
        "Satellite Name": "Constellation 1 1468",
        "Satellite Number": 1468,
        "Semi-Major Axis(m)": 7083131.272910544,
        "Time(s)": 54
    },
    {
        "Altitude(m)": 717799.2338024058,
        "Argument of Periapsis(deg)": 0.0032971403434973088,
        "Eccentricity": 0.0,
        "Inclination(deg)": 45.0,
        "Latitude(deg)": -44.95081653854459,
        "Longitude(deg)": 132.9821638446478,
        "Mean Anomaly(deg)": -94.84323728625547,
        "RAAN(deg)": 329.99688759589367,
        "Satellite Name": "Constellation 1 1468",
        "Satellite Number": 1468,
        "Semi-Major Axis(m)": 7083131.272910544,
        "Time(s)": 55
    },
    {
        "Altitude(m)": 717801.3086026713,
        "Argument of Periapsis(deg)": 0.0033570883497427146,
        "Eccentricity": 0.0,
        "Inclination(deg)": 45.0,
        "Latitude(deg)": -44.95587405201202,
        "Longitude(deg)": 133.06309689154682,
        "Mean Anomaly(deg)": -94.78253614600564,
        "RAAN(deg)": 329.9968310067281,
        "Satellite Name": "Constellation 1 1468",
        "Satellite Number": 1468,
        "Semi-Major Axis(m)": 7083131.272910544,
        "Time(s)": 56
    }
]